[
  { "name": "PowerSurge_1001", "postcode": "3451", "wattCapacity": 760 },
  { "name": "EnergyBlast_404", "postcode": "6012", "wattCapacity": 875 },
  { "name": "ChargePulse_328", "postcode": "7723", "wattCapacity": 250 },
  { "name": "ThunderGrid_920", "postcode": "4952", "wattCapacity": 630 },
  { "name": "LightFlow_511", "postcode": "7200", "wattCapacity": 120 },
  { "name": "BrightVolt_443", "postcode": "2134", "wattCapacity": 560 },
  { "name": "MegaCell_759", "postcode": "3469", "wattCapacity": 930 },
  { "name": "VoltTitan_305", "postcode": "8902", "wattCapacity": 101 },
  { "name": "UltraVolt_893", "postcode": "3002", "wattCapacity": 405 },
  { "name": "", "postcode": "4222", "wattCapacity": 678 },
  { "name": "EnergySpike_628", "postcode": "5545", "wattCapacity": 299 },
  { "name": "BrightPath_993", "postcode": "2456", "wattCapacity": 978 },
  { "name": "PulsePower_880", "postcode": "2234", "wattCapacity": 407 },
  { "name": "NovaCore_441", "postcode": "9821", "wattCapacity": 930 },
  { "name": "ThunderRay_306", "postcode": "2040", "wattCapacity": 488 },
  { "name": "SparkBlast_788", "postcode": "5723", "wattCapacity": 210 },
  { "name": "GlowEnergy_555", "postcode": "3345", "wattCapacity": 987 },
  { "name": "VoltBeam_325", "postcode": "9122", "wattCapacity": 762 },
  { "name": "MegaBolt_912", "postcode": "8722", "wattCapacity": 401 },
  { "name": "", "postcode": "7781", "wattCapacity": 150 },
  { "name": "PulseCell_567", "postcode": "6410", "wattCapacity": 710 },
  { "name": "LightVault_431", "postcode": "3721", "wattCapacity": 512 },
  { "name": "ChargeBoost_600", "postcode": "7812", "wattCapacity": 305 },
  { "name": "ElectroWave_453", "postcode": "2305", "wattCapacity": 940 },
  { "name": "PowerGrid_907", "postcode": "5678", "wattCapacity": 407 },
  { "name": "DynamicVolt_405", "postcode": "6890", "wattCapacity": 515 },
  { "name": "GlowSurge_215", "postcode": "4175", "wattCapacity": 670 },
  { "name": "PowerRay_315", "postcode": "9204", "wattCapacity": 930 },
  { "name": "ChargeLink_911", "postcode": "3034", "wattCapacity": 789 },
  { "name": "ElectroRay_891", "postcode": "2345", "wattCapacity": 204 },
  { "name": "HyperCell_529", "postcode": "8271", "wattCapacity": 635 },
  { "name": "MegaBoost_401", "postcode": "2135", "wattCapacity": 470 },
  { "name": "VoltPulse_309", "postcode": "7250", "wattCapacity": 879 },
  { "name": "EnergyCore_661", "postcode": "2309", "wattCapacity": 307 },
  { "name": "ChargePath_321", "postcode": "9911", "wattCapacity": 750 },
  { "name": "ThunderFlow_601", "postcode": "4213", "wattCapacity": 201 },
  { "name": "EnergyWave_882", "postcode": "6892", "wattCapacity": 469 },
  { "name": "BrightCell_111", "postcode": "2310", "wattCapacity": 530 },
  { "name": "SparkVolt_512", "postcode": "8055", "wattCapacity": 350 },
  { "name": "MegaSurge_413", "postcode": "3922", "wattCapacity": 915 },
  { "name": "VoltPath_882", "postcode": "1405", "wattCapacity": 804 },
  { "name": "PulseRay_755", "postcode": "2044", "wattCapacity": 306 },
  { "name": "ThunderCore_602", "postcode": "4421", "wattCapacity": 908 },
  { "name": "SparkFlow_554", "postcode": "5633", "wattCapacity": 701 },
  { "name": "ChargeGrid_933", "postcode": "7843", "wattCapacity": 405 },
  { "name": "", "postcode": "1204", "wattCapacity": 403 },
  { "name": "EnergyCharge_500", "postcode": "4302", "wattCapacity": 507 }
]
